stk.v.4.2

BEGIN Ephemeris

    BlockingFactor		20

    InterpolationOrder 		5


NumberOfEphemerisPoints 		62

ScenarioEpoch 		1 Jun 2001 18:00:00.000000000

CentralBody 		 Earth

CoordinateSystem 		 Fixed

EphemerisTimePosVel

1.30000000000000e+002 3.92731586330000e+006 3.67532723630000e+006 3.66234427720000e+006 1.85959820000000e+003 -1.43440720000000e+003 3.05397280000000e+003
1.31000000000000e+002 3.92916653910000e+006 3.67386642080000e+006 3.66540832770000e+006 1.86941530000000e+003 -1.45190250000000e+003 3.07417770000000e+003
1.32000000000000e+002 3.93102683760000e+006 3.67238778020000e+006 3.66849273280000e+006 1.87939570000000e+003 -1.46960000000000e+003 3.09468300000000e+003
1.33000000000000e+002 3.93289691950000e+006 3.67089110700000e+006 3.67159779630000e+006 1.88954350000000e+003 -1.48750450000000e+003 3.11549600000000e+003
1.34000000000000e+002 3.93477694990000e+006 3.66937618860000e+006 3.67472383000000e+006 1.89986310000000e+003 -1.50562080000000e+003 3.13662450000000e+003
1.35000000000000e+002 3.93666709770000e+006 3.66784280770000e+006 3.67787115310000e+006 1.91035870000000e+003 -1.52395390000000e+003 3.15807630000000e+003
1.36000000000000e+002 3.93856753650000e+006 3.66629074160000e+006 3.68104009320000e+006 1.92103500000000e+003 -1.54250900000000e+003 3.17985980000000e+003
1.37000000000000e+002 3.94047844450000e+006 3.66471976220000e+006 3.68423098610000e+006 1.93189690000000e+003 -1.56129160000000e+003 3.20198350000000e+003
1.38000000000000e+002 3.94240000460000e+006 3.66312963590000e+006 3.68744417650000e+006 1.94294920000000e+003 -1.58030730000000e+003 3.22445630000000e+003
1.39000000000000e+002 3.94433240450000e+006 3.66152012320000e+006 3.69068001820000e+006 1.95419720000000e+003 -1.59956190000000e+003 3.24728770000000e+003
1.40000000000000e+002 3.94627583740000e+006 3.65989097850000e+006 3.69393887450000e+006 1.96564610000000e+003 -1.61906160000000e+003 3.27048710000000e+003
1.41000000000000e+002 3.94823054110000e+006 3.65824191680000e+006 3.69722118460000e+006 1.97738150000000e+003 -1.63887860000000e+003 3.29419760000000e+003
1.42000000000000e+002 3.95019676020000e+006 3.65657264490000e+006 3.70052740050000e+006 1.98933150000000e+003 -1.65895570000000e+003 3.31830050000000e+003
1.43000000000000e+002 3.95217470680000e+006 3.65488289530000e+006 3.70385792000000e+006 2.00150230000000e+003 -1.67930000000000e+003 3.34280680000000e+003
1.44000000000000e+002 3.95416459910000e+006 3.65317239310000e+006 3.70721315250000e+006 2.01390040000000e+003 -1.69991880000000e+003 3.36772830000000e+003
1.45000000000000e+002 3.95616666170000e+006 3.65144085600000e+006 3.71059351900000e+006 2.02653240000000e+003 -1.72081950000000e+003 3.39307690000000e+003
1.46000000000000e+002 3.95818112590000e+006 3.64968799370000e+006 3.71399945290000e+006 2.03940550000000e+003 -1.74201030000000e+003 3.41886540000000e+003
1.47000000000000e+002 3.96020823030000e+006 3.64791350780000e+006 3.71743140070000e+006 2.05252700000000e+003 -1.76349930000000e+003 3.44510690000000e+003
1.48000000000000e+002 3.96224822060000e+006 3.64611709100000e+006 3.72088982230000e+006 2.06590460000000e+003 -1.78529530000000e+003 3.47181530000000e+003
1.49000000000000e+002 3.96430135050000e+006 3.64429842710000e+006 3.72437519170000e+006 2.07954640000000e+003 -1.80740740000000e+003 3.49900500000000e+003
1.50000000000000e+002 3.96636788150000e+006 3.64245719070000e+006 3.72788799790000e+006 2.09346090000000e+003 -1.82984500000000e+003 3.52669130000000e+003
1.51000000000000e+002 3.96844808390000e+006 3.64059304620000e+006 3.73142874510000e+006 2.10765690000000e+003 -1.85261820000000e+003 3.55488990000000e+003
1.52000000000000e+002 3.97054223650000e+006 3.63870564760000e+006 3.73499795400000e+006 2.12214380000000e+003 -1.87573740000000e+003 3.58361760000000e+003
1.53000000000000e+002 3.97265062780000e+006 3.63679463830000e+006 3.73859616250000e+006 2.13693120000000e+003 -1.89921350000000e+003 3.61289190000000e+003
1.54000000000000e+002 3.97477355600000e+006 3.63485965000000e+006 3.74222392610000e+006 2.15202950000000e+003 -1.92305820000000e+003 3.64273110000000e+003
1.55000000000000e+002 3.97691132950000e+006 3.63290030260000e+006 3.74588181950000e+006 2.16744940000000e+003 -1.94728350000000e+003 3.67315460000000e+003
1.56000000000000e+002 3.97906426770000e+006 3.63091620320000e+006 3.74957043690000e+006 2.18320230000000e+003 -1.97190230000000e+003 3.70418280000000e+003
1.57000000000000e+002 3.98123270130000e+006 3.62890694580000e+006 3.75329039370000e+006 2.19930020000000e+003 -1.99692790000000e+003 3.73583700000000e+003
1.58000000000000e+002 3.98341697300000e+006 3.62687211000000e+006 3.75704232700000e+006 2.21575560000000e+003 -2.02237440000000e+003 3.76813980000000e+003
1.59000000000000e+002 3.98561743840000e+006 3.62481126110000e+006 3.76082689750000e+006 2.23258200000000e+003 -2.04825700000000e+003 3.80111520000000e+003
1.60000000000000e+002 3.98783446630000e+006 3.62272394860000e+006 3.76464479000000e+006 2.24979330000000e+003 -2.07459120000000e+003 3.83478820000000e+003
1.60350000000000e+002 3.98861015820000e+006 3.62199117440000e+006 3.76598171900000e+006 2.25634840000000e+003 -2.08348690000000e+003 3.84657050000000e+003
1.61000000000000e+002 3.99007021010000e+006 3.62060962880000e+006 3.76849538780000e+006 2.27231910000000e+003 -2.10220310000000e+003 3.86511880000000e+003
1.62000000000000e+002 3.99232989600000e+006 3.61846613720000e+006 3.77237491990000e+006 2.29733040000000e+003 -2.13134970000000e+003 3.89404200000000e+003
1.63000000000000e+002 3.99461440620000e+006 3.61629276440000e+006 3.77628366840000e+006 2.32298550000000e+003 -2.16104330000000e+003 3.92355520000000e+003
1.64000000000000e+002 3.99692438690000e+006 3.61408894120000e+006 3.78022223450000e+006 2.34931140000000e+003 -2.19130540000000e+003 3.95368120000000e+003
1.65000000000000e+002 3.99926051150000e+006 3.61185407600000e+006 3.78419124330000e+006 2.37633670000000e+003 -2.22215880000000e+003 3.98444460000000e+003
1.66000000000000e+002 4.00162348280000e+006 3.60958755310000e+006 3.78819134490000e+006 2.40409210000000e+003 -2.25362780000000e+003 4.01587130000000e+003
1.67000000000000e+002 4.00401403470000e+006 3.60728873120000e+006 3.79222321620000e+006 2.43261000000000e+003 -2.28573820000000e+003 4.04798890000000e+003
1.68000000000000e+002 4.00643293410000e+006 3.60495694180000e+006 3.79628756270000e+006 2.46192520000000e+003 -2.31851740000000e+003 4.08082670000000e+003
1.69000000000000e+002 4.00888098340000e+006 3.60259148750000e+006 3.80038512010000e+006 2.49207470000000e+003 -2.35199480000000e+003 4.11441600000000e+003
1.70000000000000e+002 4.01135902280000e+006 3.60019163980000e+006 3.80451665640000e+006 2.52309840000000e+003 -2.38620170000000e+003 4.14879030000000e+003
1.71000000000000e+002 4.01386793300000e+006 3.59775663710000e+006 3.80868297430000e+006 2.55503870000000e+003 -2.42117170000000e+003 4.18398540000000e+003
1.72000000000000e+002 4.01640863840000e+006 3.59528568230000e+006 3.81288491340000e+006 2.58794140000000e+003 -2.45694090000000e+003 4.22003940000000e+003
1.73000000000000e+002 4.01898211000000e+006 3.59277794040000e+006 3.81712335310000e+006 2.62185550000000e+003 -2.49354770000000e+003 4.25699350000000e+003
1.74000000000000e+002 4.02158936910000e+006 3.59023253510000e+006 3.82139921500000e+006 2.65683410000000e+003 -2.53103380000000e+003 4.29489170000000e+003
1.75000000000000e+002 4.02423149140000e+006 3.58764854620000e+006 3.82571346700000e+006 2.69293430000000e+003 -2.56944410000000e+003 4.33378160000000e+003
1.76000000000000e+002 4.02690961090000e+006 3.58502500620000e+006 3.83006712580000e+006 2.73021780000000e+003 -2.60882670000000e+003 4.37371430000000e+003
1.77000000000000e+002 4.02962492530000e+006 3.58236089580000e+006 3.83446126170000e+006 2.76875150000000e+003 -2.64923420000000e+003 4.41474530000000e+003
1.78000000000000e+002 4.03237870120000e+006 3.57965514040000e+006 3.83889700230000e+006 2.80860820000000e+003 -2.69072320000000e+003 4.45693430000000e+003
1.79000000000000e+002 4.03517227980000e+006 3.57690660470000e+006 3.84337553800000e+006 2.84986700000000e+003 -2.73335530000000e+003 4.50034650000000e+003
1.80000000000000e+002 4.03800708400000e+006 3.57411408790000e+006 3.84789812660000e+006 2.89261420000000e+003 -2.77719770000000e+003 4.54505260000000e+003
1.81000000000000e+002 4.04088462570000e+006 3.57127631730000e+006 3.85246610010000e+006 2.93694420000000e+003 -2.82232380000000e+003 4.59112970000000e+003
1.82000000000000e+002 4.04380651450000e+006 3.56839194220000e+006 3.85708087110000e+006 2.98296060000000e+003 -2.86881390000000e+003 4.63866220000000e+003
1.83000000000000e+002 4.04677446710000e+006 3.56545952560000e+006 3.86174394040000e+006 3.03077720000000e+003 -2.91675600000000e+003 4.68774250000000e+003
1.84000000000000e+002 4.04979031830000e+006 3.56247753600000e+006 3.86645690590000e+006 3.08051980000000e+003 -2.96624740000000e+003 4.73847240000000e+003
1.85000000000000e+002 4.05285603340000e+006 3.55944433800000e+006 3.87122147230000e+006 3.13232730000000e+003 -3.01739530000000e+003 4.79096400000000e+003
1.86000000000000e+002 4.05597372250000e+006 3.55635818030000e+006 3.87603946230000e+006 3.18635440000000e+003 -3.07031860000000e+003 4.84534140000000e+003
1.87000000000000e+002 4.05914565680000e+006 3.55321718390000e+006 3.88091282960000e+006 3.24277340000000e+003 -3.12514980000000e+003 4.90174280000000e+003
1.88000000000000e+002 4.06237428730000e+006 3.55001932650000e+006 3.88584367350000e+006 3.30177700000000e+003 -3.18203680000000e+003 4.96032190000000e+003
1.89000000000000e+002 4.06566226700000e+006 3.54676242590000e+006 3.89083425640000e+006 3.36358210000000e+003 -3.24114550000000e+003 5.02125100000000e+003
1.90000000000000e+002 4.06901247670000e+006 3.54344412010000e+006 3.89588702320000e+006 3.42843360000000e+003 -3.30266300000000e+003 5.08472420000000e+003

END Ephemeris
